*******************************************************************************
Ephemeris / WWW_USER Mon Mar 24 10:51:07 2025 Pasadena, USA      / Horizons    
*******************************************************************************
Target body name: (2018 PM20)                     {source: JPL#2}
Center body name: Earth (399)                     {source: DE441}
Center-site name: Mauna Kea
*******************************************************************************
Start time      : A.D. 2018-Aug-09 05:04:00.0000 UT      
Stop  time      : A.D. 2018-Aug-09 15:50:00.0000 UT      
Step-size       : 1 minutes
*******************************************************************************
Target pole/equ : undefined
Target radii    : undefined                                                    
Center geodetic : 204.5278, 19.8260847, 4.21024   {E-lon(deg),Lat(deg),Alt(km)}
Center cylindric: 204.5278, 6006.35451, 2151.0229 {E-lon(deg),Dxy(km),Dz(km)}
Center pole/equ : ITRF93                          {East-longitude positive}
Center radii    : 6378.137, 6378.137, 6356.752 km {Equator_a, b, pole_c}       
Target primary  : Sun
Vis. interferer : MOON (R_eq= 1737.400) km        {source: DE441}
Rel. light bend : Sun                             {source: DE441}
Rel. lght bnd GM: 1.3271E+11 km^3/s^2                                          
Small-body perts: Yes                             {source: SB441-N16}
Atmos refraction: NO (AIRLESS)
RA format       : HMS
Time format     : CAL 
Calendar mode   : Mixed Julian/Gregorian
RTS-only print  : NO       
EOP file        : eop.250321.p250617                                           
EOP coverage    : DATA-BASED 1962-JAN-20 TO 2025-MAR-21. PREDICTS-> 2025-JUN-16
Units conversion: 1 au= 149597870.700 km, c= 299792.458 km/s, 1 day= 86400.0 s 
Table cut-offs 1: Elevation (-90.0deg=NO ),Airmass (>38.000=NO), Daylight (YES)
Table cut-offs 2: Solar elongation (  0.0,180.0=NO ),Local Hour Angle( 0.0=NO )
Table cut-offs 3: RA/DEC angular rate (     0.0=NO )                           
*******************************************************************************
Initial IAU76/J2000 heliocentric ecliptic osculating elements (au, days, deg.):
  EPOCH=  2458343.5 ! 2018-Aug-13.00 (TDB)         Residual RMS= .089003       
   EC= .5103595829140648   QR= .9783824475456468   TP= 2458372.5495769856      
   OM= 141.729241004527    W=  213.3086535448706   IN= 3.923256746335003       
  Equivalent ICRF heliocentric cartesian coordinates (au, au/d):
   X= 8.000585561647119E-01  Y=-6.125483166279821E-01  Z=-2.634816273742420E-01
  VX= 9.656077190407949E-03 VY= 1.708944028933422E-02 VZ= 5.904161592396531E-03
Asteroid physical parameters (km, seconds, rotational period in hours):        
   GM= n.a.                RAD= n.a.               ROTPER= n.a.                
   H= 26.3                 G= .150                 B-V= n.a.                   
                           ALBEDO= n.a.            STYP= n.a.                  
*******************************************************************************
 Date__(UT)__HR:MN     R.A._________(ICRF)_________DEC
******************************************************
$$SOE
 2018-Aug-09 05:04 C   20 41 24.397458 -08 51 42.53393
 2018-Aug-09 05:05 C   20 41 24.897795 -08 51 42.69205
 2018-Aug-09 05:06 C   20 41 25.397983 -08 51 42.85000
 2018-Aug-09 05:07 C   20 41 25.898021 -08 51 43.00777
 2018-Aug-09 05:08 C   20 41 26.397910 -08 51 43.16536
 2018-Aug-09 05:09 C   20 41 26.897650 -08 51 43.32277
 2018-Aug-09 05:10 C   20 41 27.397241 -08 51 43.47998
 2018-Aug-09 05:11 C   20 41 27.896684 -08 51 43.63702
 2018-Aug-09 05:12 C   20 41 28.395979 -08 51 43.79386
 2018-Aug-09 05:13 C   20 41 28.895126 -08 51 43.95050
 2018-Aug-09 05:14 C   20 41 29.394126 -08 51 44.10696
 2018-Aug-09 05:15 C   20 41 29.892979 -08 51 44.26321
 2018-Aug-09 05:16 C   20 41 30.391685 -08 51 44.41927
 2018-Aug-09 05:17 C   20 41 30.890244 -08 51 44.57513
 2018-Aug-09 05:18 N   20 41 31.388657 -08 51 44.73078
 2018-Aug-09 05:19 N   20 41 31.886925 -08 51 44.88622
 2018-Aug-09 05:20 N   20 41 32.385047 -08 51 45.04146
 2018-Aug-09 05:21 N   20 41 32.883024 -08 51 45.19649
 2018-Aug-09 05:22 N   20 41 33.380856 -08 51 45.35130
 2018-Aug-09 05:23 N   20 41 33.878543 -08 51 45.50590
 2018-Aug-09 05:24 N   20 41 34.376087 -08 51 45.66029
 2018-Aug-09 05:25 N   20 41 34.873487 -08 51 45.81445
 2018-Aug-09 05:26 N   20 41 35.370743 -08 51 45.96839
 2018-Aug-09 05:27 N   20 41 35.867856 -08 51 46.12211
 2018-Aug-09 05:28 N   20 41 36.364827 -08 51 46.27560
 2018-Aug-09 05:29 N   20 41 36.861656 -08 51 46.42887
 2018-Aug-09 05:30 N   20 41 37.358342 -08 51 46.58191
 2018-Aug-09 05:31 N   20 41 37.854887 -08 51 46.73471
 2018-Aug-09 05:32 N   20 41 38.351291 -08 51 46.88728
 2018-Aug-09 05:33 N   20 41 38.847554 -08 51 47.03961
 2018-Aug-09 05:34 N   20 41 39.343676 -08 51 47.19170
 2018-Aug-09 05:35 N   20 41 39.839659 -08 51 47.34356
 2018-Aug-09 05:36 N   20 41 40.335502 -08 51 47.49517
 2018-Aug-09 05:37 N   20 41 40.831206 -08 51 47.64653
 2018-Aug-09 05:38 N   20 41 41.326771 -08 51 47.79765
 2018-Aug-09 05:39 N   20 41 41.822198 -08 51 47.94852
 2018-Aug-09 05:40 N   20 41 42.317487 -08 51 48.09913
 2018-Aug-09 05:41 N   20 41 42.812638 -08 51 48.24950
 2018-Aug-09 05:42 N   20 41 43.307653 -08 51 48.39960
 2018-Aug-09 05:43 N   20 41 43.802530 -08 51 48.54945
 2018-Aug-09 05:44 N   20 41 44.297272 -08 51 48.69904
 2018-Aug-09 05:45 N   20 41 44.791877 -08 51 48.84837
 2018-Aug-09 05:46 A   20 41 45.286348 -08 51 48.99743
 2018-Aug-09 05:47 A   20 41 45.780683 -08 51 49.14622
 2018-Aug-09 05:48 A   20 41 46.274884 -08 51 49.29475
 2018-Aug-09 05:49 A   20 41 46.768951 -08 51 49.44301
 2018-Aug-09 05:50 A   20 41 47.262884 -08 51 49.59099
 2018-Aug-09 05:51 A   20 41 47.756685 -08 51 49.73870
 2018-Aug-09 05:52 A   20 41 48.250352 -08 51 49.88613
 2018-Aug-09 05:53 A   20 41 48.743888 -08 51 50.03328
 2018-Aug-09 05:54 A   20 41 49.237292 -08 51 50.18015
 2018-Aug-09 05:55 A   20 41 49.730564 -08 51 50.32674
 2018-Aug-09 05:56 A   20 41 50.223706 -08 51 50.47304
 2018-Aug-09 05:57 A   20 41 50.716718 -08 51 50.61906
 2018-Aug-09 05:58 A   20 41 51.209600 -08 51 50.76478
 2018-Aug-09 05:59 A   20 41 51.702353 -08 51 50.91022
 2018-Aug-09 06:00 A   20 41 52.194977 -08 51 51.05536
 2018-Aug-09 06:01 A   20 41 52.687473 -08 51 51.20021
 2018-Aug-09 06:02 A   20 41 53.179841 -08 51 51.34475
 2018-Aug-09 06:03 A   20 41 53.672082 -08 51 51.48900
 2018-Aug-09 06:04 A   20 41 54.164196 -08 51 51.63295
 2018-Aug-09 06:05 A   20 41 54.656184 -08 51 51.77659
 2018-Aug-09 06:06 A   20 41 55.148046 -08 51 51.91993
 2018-Aug-09 06:07 A   20 41 55.639783 -08 51 52.06296
 2018-Aug-09 06:08 A   20 41 56.131396 -08 51 52.20567
 2018-Aug-09 06:09 A   20 41 56.622884 -08 51 52.34808
 2018-Aug-09 06:10 A   20 41 57.114249 -08 51 52.49017
 2018-Aug-09 06:11 A   20 41 57.605491 -08 51 52.63195
 2018-Aug-09 06:12 A   20 41 58.096610 -08 51 52.77341
 2018-Aug-09 06:13     20 41 58.587608 -08 51 52.91455
 2018-Aug-09 06:14     20 41 59.078484 -08 51 53.05537
 2018-Aug-09 06:15     20 41 59.569239 -08 51 53.19586
 2018-Aug-09 06:16     20 42 00.059874 -08 51 53.33603
 2018-Aug-09 06:17     20 42 00.550389 -08 51 53.47587
 2018-Aug-09 06:18     20 42 01.040786 -08 51 53.61538
 2018-Aug-09 06:19     20 42 01.531063 -08 51 53.75456
 2018-Aug-09 06:20     20 42 02.021223 -08 51 53.89341
 2018-Aug-09 06:21     20 42 02.511265 -08 51 54.03192
 2018-Aug-09 06:22     20 42 03.001191 -08 51 54.17009
 2018-Aug-09 06:23     20 42 03.491000 -08 51 54.30792
 2018-Aug-09 06:24     20 42 03.980694 -08 51 54.44542
 2018-Aug-09 06:25     20 42 04.470273 -08 51 54.58256
 2018-Aug-09 06:26     20 42 04.959737 -08 51 54.71937
 2018-Aug-09 06:27     20 42 05.449087 -08 51 54.85582
 2018-Aug-09 06:28     20 42 05.938324 -08 51 54.99193
 2018-Aug-09 06:29     20 42 06.427449 -08 51 55.12769
 2018-Aug-09 06:30     20 42 06.916461 -08 51 55.26309
 2018-Aug-09 06:31     20 42 07.405362 -08 51 55.39814
 2018-Aug-09 06:32     20 42 07.894153 -08 51 55.53283
 2018-Aug-09 06:33     20 42 08.382833 -08 51 55.66716
 2018-Aug-09 06:34     20 42 08.871404 -08 51 55.80113
 2018-Aug-09 06:35     20 42 09.359865 -08 51 55.93474
 2018-Aug-09 06:36     20 42 09.848219 -08 51 56.06799
 2018-Aug-09 06:37     20 42 10.336465 -08 51 56.20087
 2018-Aug-09 06:38     20 42 10.824604 -08 51 56.33338
 2018-Aug-09 06:39     20 42 11.312636 -08 51 56.46553
 2018-Aug-09 06:40     20 42 11.800563 -08 51 56.59730
 2018-Aug-09 06:41     20 42 12.288385 -08 51 56.72869
 2018-Aug-09 06:42     20 42 12.776102 -08 51 56.85972
 2018-Aug-09 06:43     20 42 13.263716 -08 51 56.99036
 2018-Aug-09 06:44     20 42 13.751226 -08 51 57.12063
 2018-Aug-09 06:45     20 42 14.238635 -08 51 57.25051
 2018-Aug-09 06:46     20 42 14.725941 -08 51 57.38002
 2018-Aug-09 06:47     20 42 15.213147 -08 51 57.50914
 2018-Aug-09 06:48     20 42 15.700252 -08 51 57.63787
 2018-Aug-09 06:49     20 42 16.187257 -08 51 57.76621
 2018-Aug-09 06:50     20 42 16.674164 -08 51 57.89417
 2018-Aug-09 06:51     20 42 17.160972 -08 51 58.02173
 2018-Aug-09 06:52     20 42 17.647682 -08 51 58.14890
 2018-Aug-09 06:53     20 42 18.134296 -08 51 58.27568
 2018-Aug-09 06:54     20 42 18.620813 -08 51 58.40206
 2018-Aug-09 06:55     20 42 19.107235 -08 51 58.52804
 2018-Aug-09 06:56     20 42 19.593562 -08 51 58.65362
 2018-Aug-09 06:57     20 42 20.079794 -08 51 58.77880
 2018-Aug-09 06:58     20 42 20.565934 -08 51 58.90358
 2018-Aug-09 06:59     20 42 21.051980 -08 51 59.02795
 2018-Aug-09 07:00     20 42 21.537935 -08 51 59.15191
 2018-Aug-09 07:01     20 42 22.023799 -08 51 59.27546
 2018-Aug-09 07:02     20 42 22.509571 -08 51 59.39861
 2018-Aug-09 07:03     20 42 22.995254 -08 51 59.52134
 2018-Aug-09 07:04     20 42 23.480848 -08 51 59.64366
 2018-Aug-09 07:05     20 42 23.966354 -08 51 59.76556
 2018-Aug-09 07:06     20 42 24.451772 -08 51 59.88705
